{"type":"FeatureCollection","features":[{"type":"Feature","properties":{"district":1,"name_fa":"منطقه 1"},"geometry":{"type":"Polygon","coordinates":[[[51.38369,35.81114],[51.3864,35.80693],[51.38927,35.80209],[51.3915,35.79732],[51.38999,35.7925],[51.39231,35.79034],[51.39429,35.79131],[51.39866,35.79243],[51.4015,35.79389],[51.40356,35.79368],[51.40673,35.7918],[51.41205,35.79173],[51.4172,35.79089],[51.41978,35.78936],[51.42175,35.78574],[51.42433,35.78303],[51.42707,35.77961],[51.42853,35.77864],[51.43325,35.78143],[51.43609,35.78428],[51.44329,35.78567],[51.44553,35.78644],[51.45016,35.78811],[51.45265,35.78943],[51.45935,35.79326],[51.46226,35.79312],[51.46862,35.79166],[51.47222,35.79048],[51.47926,35.79062],[51.48321,35.78922],[51.48947,35.78623],[51.49368,35.78581],[51.49806,35.78651],[51.50321,35.78539],[51.51299,35.78289],[51.5202,35.77815],[51.53531,35.77662],[51.53531,35.77801],[51.53462,35.78031],[51.53505,35.78212],[51.53659,35.7863],[51.53811,35.78771],[51.53957,35.78903],[51.5406,35.78976],[51.54197,35.79192],[51.54107,35.79331],[51.54217,35.79333],[51.54698,35.79431],[51.54912,35.79639],[51.55153,35.79451],[51.55299,35.795],[51.55213,35.79626],[51.55118,35.79702],[51.54998,35.79876],[51.54921,35.80022],[51.54758,35.80078],[51.54586,35.80224],[51.5444,35.8044],[51.54312,35.80621],[51.54114,35.80718],[51.54011,35.80872],[51.53917,35.81011],[51.53977,35.81164],[51.54106,35.8124],[51.53925,35.81428],[51.53788,35.81227],[51.53531,35.81129],[51.53385,35.81101],[51.53316,35.81268],[51.53179,35.81373],[51.5305,35.81227],[51.5293,35.81199],[51.52732,35.81199],[51.52509,35.81185],[51.52269,35.81345],[51.51969,35.81449],[51.51617,35.81693],[51.51385,35.8181],[51.5121,35.81762],[51.51038,35.81699],[51.50948,35.81814],[51.50883,35.81929],[51.50755,35.81894],[51.50622,35.81734],[51.50617,35.81553],[51.50416,35.81605],[51.50201,35.81629],[51.5015,35.81521],[51.50051,35.81521],[51.49836,35.81587],[51.49793,35.81664],[51.49733,35.81755],[51.49579,35.81713],[51.49497,35.8186],[51.49239,35.82083],[51.49222,35.82312],[51.4917,35.82479],[51.49136,35.82312],[51.49102,35.82104],[51.48904,35.82048],[51.48741,35.81916],[51.48587,35.82076],[51.48372,35.82006],[51.48123,35.82138],[51.47771,35.82305],[51.47574,35.82305],[51.47239,35.82229],[51.46844,35.82612],[51.46673,35.82744],[51.46467,35.82869],[51.46218,35.82925],[51.46175,35.82751],[51.46235,35.82521],[51.45926,35.82451],[51.45669,35.8225],[51.45308,35.82145],[51.44862,35.8218],[51.44621,35.81999],[51.44209,35.82048],[51.43806,35.8225],[51.43342,35.82431],[51.43068,35.8241],[51.42793,35.82312],[51.42604,35.82229],[51.42407,35.82326],[51.42278,35.8225],[51.42072,35.82243],[51.41978,35.82117],[51.419,35.81992],[51.41883,35.81867],[51.41334,35.81839],[51.4124,35.817],[51.40939,35.81623],[51.40725,35.81568],[51.40476,35.81623],[51.40175,35.81818],[51.40132,35.81554],[51.39944,35.81442],[51.39643,35.81338],[51.39377,35.81324],[51.39162,35.81213],[51.38974,35.81122],[51.38922,35.80962],[51.38733,35.80906],[51.38596,35.80879],[51.38437,35.81149],[51.38369,35.81114]]]}},{"type":"Feature","properties":{"district":2,"name_fa":"منطقه 2"},"geometry":{"type":"Polygon","coordinates":[[[51.34393,35.7971],[51.34346,35.7974],[51.34288,35.79867],[51.34211,35.79675],[51.34228,35.79555],[51.34233,35.79477],[51.34271,35.79388],[51.34273,35.79334],[51.34215,35.79287],[51.342,35.79261],[51.34254,35.79204],[51.34256,35.79144],[51.34376,35.79007],[51.34318,35.78927],[51.34271,35.78875],[51.34164,35.78833],[51.34069,35.78749],[51.3403,35.78639],[51.33893,35.78507],[51.33803,35.77964],[51.33692,35.77915],[51.3358,35.77846],[51.33738,35.767],[51.33584,35.76195],[51.33193,35.75192],[51.33172,35.74906],[51.33782,35.69983],[51.33963,35.70003],[51.34095,35.70008],[51.3779,35.70074],[51.37734,35.70461],[51.37798,35.7191],[51.37897,35.72172],[51.38292,35.72778],[51.38347,35.74213],[51.38536,35.74634],[51.3857,35.74973],[51.38656,35.75503],[51.38853,35.76025],[51.38707,35.77084],[51.38802,35.77258],[51.39299,35.78003],[51.39162,35.78727],[51.39257,35.78985],[51.39016,35.79256],[51.39145,35.7973],[51.38956,35.80147],[51.38733,35.8053],[51.38372,35.81115],[51.38184,35.80572],[51.37892,35.80398],[51.37411,35.80196],[51.37068,35.80321],[51.36682,35.80544],[51.36132,35.80252],[51.35317,35.80064],[51.35084,35.79863],[51.3496,35.79766],[51.34844,35.79665],[51.34645,35.79689],[51.34511,35.79696],[51.34393,35.7971]]]}},{"type":"Feature","properties":{"district":3,"name_fa":"منطقه 3"},"geometry":{"type":"Polygon","coordinates":[[[51.4754,35.79069],[51.47222,35.79048],[51.46982,35.79138],[51.46261,35.79333],[51.45943,35.79326],[51.45076,35.78846],[51.44338,35.78581],[51.43634,35.78428],[51.43308,35.78129],[51.42819,35.77864],[51.4269,35.77989],[51.42536,35.7817],[51.42175,35.7856],[51.41978,35.78936],[51.41609,35.7911],[51.41222,35.7918],[51.40682,35.79173],[51.40347,35.79382],[51.40124,35.79389],[51.39866,35.7925],[51.39635,35.7918],[51.39429,35.79131],[51.39257,35.7902],[51.39171,35.78734],[51.39283,35.78031],[51.38699,35.77063],[51.38836,35.76039],[51.38673,35.75628],[51.38582,35.75037],[51.38604,35.75026],[51.38788,35.75045],[51.38962,35.75063],[51.39174,35.75085],[51.39294,35.75091],[51.40936,35.7514],[51.41112,35.75178],[51.41472,35.75237],[51.41725,35.75182],[51.42159,35.74962],[51.42249,35.74764],[51.42223,35.74499],[51.42249,35.7428],[51.42253,35.74032],[51.42287,35.74032],[51.42609,35.74039],[51.42961,35.7406],[51.43232,35.74109],[51.43433,35.7422],[51.43588,35.74252],[51.43845,35.74269],[51.44356,35.74269],[51.44498,35.74231],[51.44678,35.742],[51.44699,35.74311],[51.44764,35.74422],[51.4488,35.74611],[51.4494,35.74687],[51.44918,35.749],[51.44888,35.75185],[51.45236,35.75401],[51.4533,35.7584],[51.45402,35.76081],[51.45548,35.76548],[51.45995,35.7707],[51.46699,35.77906],[51.4681,35.7817],[51.47067,35.78616],[51.47291,35.78693],[51.47668,35.79048],[51.4754,35.79069]]]}},{"type":"Feature","properties":{"district":4,"name_fa":"منطقه 4"},"geometry":{"type":"Polygon","coordinates":[[[51.53851,35.72484],[51.54377,35.72526],[51.55148,35.72579],[51.55522,35.72603],[51.55777,35.72621],[51.55874,35.72622],[51.56229,35.726],[51.56299,35.72594],[51.56445,35.72563],[51.56705,35.72487],[51.56996,35.72441],[51.57455,35.72392],[51.57933,35.72377],[51.58131,35.72371],[51.58179,35.7239],[51.5834,35.72408],[51.58556,35.72479],[51.58681,35.7254],[51.59088,35.7282],[51.59171,35.72871],[51.59445,35.73105],[51.59583,35.73231],[51.59859,35.73388],[51.60147,35.73608],[51.60321,35.73862],[51.60484,35.7405],[51.60582,35.74367],[51.60604,35.74391],[51.59986,35.74565],[51.59355,35.74816],[51.59003,35.7482],[51.58707,35.74858],[51.57999,35.75161],[51.57776,35.75307],[51.57587,35.75621],[51.57334,35.75913],[51.56527,35.76502],[51.5596,35.76864],[51.55527,35.77066],[51.54136,35.77536],[51.53531,35.77665],[51.52021,35.77821],[51.51295,35.78277],[51.4978,35.78657],[51.49343,35.78584],[51.48991,35.78615],[51.48321,35.78925],[51.47905,35.79061],[51.47673,35.79054],[51.47279,35.78685],[51.4706,35.78615],[51.46682,35.77898],[51.4554,35.76564],[51.45506,35.763],[51.45407,35.76087],[51.45231,35.75408],[51.44884,35.75175],[51.4494,35.7467],[51.44862,35.74593],[51.44691,35.74314],[51.44687,35.74203],[51.45755,35.74109],[51.46073,35.74151],[51.46317,35.7406],[51.46669,35.7405],[51.47369,35.73945],[51.4866,35.73705],[51.5045,35.73457],[51.52836,35.73141],[51.53621,35.73036],[51.53776,35.72914],[51.53823,35.72761],[51.53851,35.72484]]]}},{"type":"Feature","properties":{"district":5,"name_fa":"منطقه 5"},"geometry":{"type":"Polygon","coordinates":[[[51.34087,35.80188],[51.34078,35.80163],[51.34037,35.80135],[51.34023,35.80082],[51.34057,35.79994],[51.34121,35.79877],[51.34121,35.79781],[51.33997,35.797],[51.34089,35.79646],[51.3405,35.79526],[51.33962,35.79404],[51.3365,35.79001],[51.33187,35.78875],[51.33135,35.78625],[51.32775,35.78708],[51.32483,35.78458],[51.32809,35.78165],[51.3262,35.77984],[51.32071,35.77928],[51.31693,35.78068],[51.31402,35.78388],[51.30612,35.78569],[51.3044,35.78082],[51.3008,35.77706],[51.29668,35.77552],[51.29496,35.77747],[51.29651,35.78109],[51.2953,35.78444],[51.28638,35.77455],[51.28089,35.77524],[51.27797,35.77622],[51.27831,35.77817],[51.2735,35.77859],[51.27093,35.77956],[51.26647,35.78082],[51.26458,35.78346],[51.26372,35.78722],[51.26046,35.79001],[51.25823,35.79265],[51.25754,35.79627],[51.2596,35.80101],[51.25974,35.80648],[51.26283,35.8101],[51.26283,35.81511],[51.26255,35.81837],[51.26215,35.82235],[51.25665,35.81594],[51.25528,35.8087],[51.25391,35.80341],[51.25208,35.80027],[51.24944,35.7984],[51.25225,35.79303],[51.25671,35.78718],[51.26049,35.78551],[51.26386,35.77974],[51.26833,35.7764],[51.26828,35.75524],[51.26734,35.74952],[51.26614,35.74625],[51.26588,35.74346],[51.26863,35.73894],[51.27712,35.73329],[51.28124,35.73016],[51.28373,35.7266],[51.28774,35.72167],[51.29139,35.71655],[51.2916,35.71192],[51.29147,35.71056],[51.29143,35.70969],[51.29109,35.70826],[51.29049,35.70798],[51.29015,35.70669],[51.29002,35.70582],[51.29027,35.70502],[51.29027,35.70422],[51.2901,35.70345],[51.28976,35.70286],[51.28967,35.70202],[51.28963,35.70091],[51.30117,35.69913],[51.31113,35.69934],[51.32203,35.69934],[51.33748,35.69989],[51.33617,35.71197],[51.33137,35.75036],[51.33223,35.75287],[51.3372,35.76666],[51.33578,35.77846],[51.33675,35.7791],[51.33799,35.77968],[51.33889,35.78506],[51.34022,35.78643],[51.34061,35.78756],[51.34153,35.78838],[51.34273,35.78882],[51.34372,35.7901],[51.34286,35.7911],[51.3425,35.79164],[51.34243,35.792],[51.342,35.79261],[51.34263,35.79327],[51.34267,35.79376],[51.34235,35.79461],[51.3422,35.79574],[51.34211,35.79717],[51.34293,35.79877],[51.34175,35.80168],[51.34125,35.80234],[51.34098,35.8025],[51.34074,35.80214],[51.34087,35.80188]]]}},{"type":"Feature","properties":{"district":6,"name_fa":"منطقه 6"},"geometry":{"type":"Polygon","coordinates":[[[51.37815,35.70068],[51.42612,35.70173],[51.42539,35.71166],[51.4258,35.71462],[51.42648,35.71616],[51.42648,35.71663],[51.42749,35.71882],[51.42638,35.72123],[51.42526,35.72238],[51.42417,35.7263],[51.42078,35.72999],[51.4203,35.73143],[51.42039,35.73295],[51.42174,35.73549],[51.42273,35.74135],[51.42224,35.74453],[51.42249,35.74789],[51.42166,35.74951],[51.41696,35.75192],[51.41466,35.75228],[51.41236,35.75199],[51.40919,35.75134],[51.392,35.75085],[51.38591,35.75026],[51.38561,35.7468],[51.3835,35.7419],[51.38331,35.73413],[51.38308,35.73162],[51.38307,35.72816],[51.38247,35.72684],[51.37859,35.72049],[51.37795,35.7184],[51.37782,35.71269],[51.37745,35.70508],[51.37815,35.70068]]]}},{"type":"Feature","properties":{"district":7,"name_fa":"منطقه 7"},"geometry":{"type":"Polygon","coordinates":[[[51.4721,35.70904],[51.46575,35.71587],[51.46403,35.71851],[51.45804,35.72802],[51.45922,35.73102],[51.46476,35.73743],[51.46673,35.74039],[51.46334,35.7405],[51.4606,35.74133],[51.45759,35.74109],[51.4512,35.74172],[51.44674,35.742],[51.4436,35.74269],[51.43575,35.74248],[51.43433,35.7422],[51.43227,35.74109],[51.42927,35.74057],[51.42249,35.74032],[51.42172,35.73552],[51.42039,35.73304],[51.42026,35.73137],[51.42073,35.73001],[51.42378,35.72667],[51.42421,35.72611],[51.42498,35.72304],[51.42545,35.72214],[51.42627,35.72137],[51.42751,35.7189],[51.42644,35.71668],[51.42648,35.71623],[51.42578,35.71462],[51.42535,35.71166],[51.42612,35.7017],[51.42732,35.7017],[51.44401,35.70197],[51.44764,35.70189],[51.46223,35.70605],[51.4721,35.70904]]]}},{"type":"Feature","properties":{"district":8,"name_fa":"منطقه 8"},"geometry":{"type":"Polygon","coordinates":[[[51.46536,35.73831],[51.46433,35.73697],[51.45918,35.73102],[51.45867,35.72971],[51.45824,35.728],[51.46569,35.71596],[51.47208,35.70905],[51.48717,35.71361],[51.50205,35.71822],[51.50613,35.71949],[51.5101,35.72078],[51.51817,35.72333],[51.51958,35.72364],[51.52128,35.72382],[51.52261,35.72392],[51.52326,35.72395],[51.52396,35.72391],[51.5253,35.72397],[51.52965,35.7243],[51.5385,35.72484],[51.53831,35.7264],[51.53814,35.72786],[51.53762,35.72919],[51.53608,35.73037],[51.52835,35.73141],[51.5166,35.73288],[51.50381,35.73462],[51.49411,35.73587],[51.48338,35.73748],[51.47308,35.7395],[51.46674,35.74037],[51.46536,35.73831]]]}},{"type":"Feature","properties":{"district":9,"name_fa":"منطقه 9"},"geometry":{"type":"Polygon","coordinates":[[[51.2895,35.7008],[51.28967,35.69822],[51.2889,35.69676],[51.28959,35.6955],[51.28838,35.693],[51.28735,35.69118],[51.2877,35.68944],[51.28675,35.68812],[51.2859,35.68651],[51.28444,35.68644],[51.28349,35.68526],[51.28298,35.68386],[51.28173,35.68233],[51.28057,35.68135],[51.27929,35.68013],[51.27929,35.67905],[51.27967,35.67842],[51.27959,35.67651],[51.28663,35.67644],[51.30933,35.67571],[51.30907,35.67208],[51.34152,35.66636],[51.34478,35.66692],[51.35087,35.66999],[51.35233,35.67103],[51.35482,35.67605],[51.35456,35.67863],[51.354,35.68386],[51.3549,35.68662],[51.3549,35.68853],[51.35611,35.6923],[51.35619,35.69407],[51.35533,35.69596],[51.35512,35.69683],[51.35512,35.69906],[51.35499,35.70014],[51.33778,35.69979],[51.32225,35.69923],[51.3065,35.69927],[51.30169,35.69885],[51.2895,35.7008]]]}},{"type":"Feature","properties":{"district":10,"name_fa":"منطقه 10"},"geometry":{"type":"Polygon","coordinates":[[[51.35224,35.67087],[51.35824,35.66874],[51.36348,35.66773],[51.36876,35.667],[51.37631,35.66874],[51.38142,35.67094],[51.3806,35.67781],[51.37966,35.68377],[51.37794,35.70067],[51.35496,35.70016],[51.35514,35.69893],[51.35514,35.69685],[51.35552,35.69561],[51.35621,35.6941],[51.35612,35.6922],[51.35486,35.68838],[51.35486,35.6865],[51.35402,35.68388],[51.35484,35.67602],[51.35224,35.67087]]]}},{"type":"Feature","properties":{"district":11,"name_fa":"منطقه 11"},"geometry":{"type":"Polygon","coordinates":[[[51.38211,35.65971],[51.38348,35.65975],[51.38558,35.65947],[51.38846,35.66177],[51.38974,35.66201],[51.3912,35.66174],[51.39326,35.66079],[51.39365,35.65975],[51.40481,35.6586],[51.40803,35.67631],[51.41291,35.70152],[51.37799,35.70069],[51.3815,35.66848],[51.38211,35.65971]]]}},{"type":"Feature","properties":{"district":12,"name_fa":"منطقه 12"},"geometry":{"type":"Polygon","coordinates":[[[51.40484,35.65864],[51.40965,35.65822],[51.41686,35.65906],[51.43342,35.6599],[51.43772,35.66004],[51.44527,35.66094],[51.44682,35.68319],[51.44802,35.70208],[51.41291,35.70138],[51.40484,35.65864]]]}},{"type":"Feature","properties":{"district":13,"name_fa":"منطقه 13"},"geometry":{"type":"Polygon","coordinates":[[[51.44741,35.68974],[51.47574,35.69176],[51.49488,35.69315],[51.50209,35.70215],[51.50578,35.7027],[51.50818,35.70431],[51.51256,35.70737],[51.51076,35.71302],[51.51299,35.71964],[51.51565,35.72131],[51.52037,35.72222],[51.52484,35.72201],[51.53136,35.72201],[51.53659,35.72319],[51.5426,35.72271],[51.54741,35.72222],[51.55084,35.72319],[51.55282,35.72424],[51.55651,35.72473],[51.56329,35.72466],[51.56552,35.72396],[51.56869,35.72257],[51.5729,35.72194],[51.57702,35.7218],[51.57944,35.72216],[51.58266,35.72216],[51.58553,35.72192],[51.58826,35.7225],[51.58809,35.72361],[51.58148,35.72375],[51.57333,35.72396],[51.56716,35.72479],[51.56304,35.7259],[51.5584,35.72625],[51.5384,35.72485],[51.5236,35.72388],[51.51913,35.72364],[51.51008,35.72081],[51.48261,35.71221],[51.45442,35.70384],[51.44798,35.70189],[51.44741,35.68974]]]}},{"type":"Feature","properties":{"district":14,"name_fa":"منطقه 14"},"geometry":{"type":"Polygon","coordinates":[[[51.47094,35.69133],[51.44728,35.68967],[51.44562,35.6655],[51.44742,35.66526],[51.44996,35.66498],[51.45651,35.6606],[51.4602,35.65962],[51.46141,35.65857],[51.46235,35.65962],[51.4645,35.66011],[51.46844,35.6592],[51.48801,35.65599],[51.49213,35.66806],[51.49256,35.68946],[51.49428,35.69288],[51.47094,35.69133]]]}},{"type":"Feature","properties":{"district":15,"name_fa":"منطقه 15"},"geometry":{"type":"Polygon","coordinates":[[[51.48811,35.65602],[51.46867,35.65912],[51.46442,35.6602],[51.46231,35.65961],[51.46149,35.65857],[51.46012,35.65955],[51.4566,35.66039],[51.44999,35.66492],[51.4457,35.66534],[51.44544,35.66094],[51.43806,35.65997],[51.43068,35.65983],[51.43325,35.65139],[51.43669,35.62453],[51.45391,35.6251],[51.45794,35.62472],[51.45876,35.62462],[51.46098,35.62356],[51.47282,35.61798],[51.47746,35.61281],[51.48003,35.61428],[51.48235,35.61372],[51.48947,35.60967],[51.49548,35.60751],[51.49522,35.60695],[51.49883,35.60465],[51.49952,35.60527],[51.50286,35.60283],[51.50647,35.60542],[51.49814,35.61442],[51.50132,35.61581],[51.49648,35.62071],[51.49734,35.62123],[51.49949,35.62172],[51.50064,35.62144],[51.50176,35.62165],[51.50296,35.62315],[51.50275,35.62364],[51.5027,35.62402],[51.50232,35.62486],[51.50206,35.62594],[51.50155,35.62793],[51.5012,35.62943],[51.50451,35.62988],[51.50408,35.63159],[51.50322,35.63351],[51.5073,35.63379],[51.50695,35.63547],[51.50996,35.63564],[51.50987,35.63731],[51.5079,35.63707],[51.50768,35.6378],[51.50197,35.63697],[51.5015,35.63938],[51.50244,35.64461],[51.49866,35.64511],[51.49704,35.64656],[51.50183,35.66011],[51.49059,35.66304],[51.48811,35.65602]]]}},{"type":"Feature","properties":{"district":16,"name_fa":"منطقه 16"},"geometry":{"type":"Polygon","coordinates":[[[51.43327,35.65152],[51.43067,35.6597],[51.41829,35.65904],[51.41228,35.6585],[51.40805,35.65815],[51.40065,35.65901],[51.39366,35.65972],[51.39293,35.65723],[51.39035,35.65817],[51.38887,35.65777],[51.38761,35.65782],[51.38666,35.65761],[51.38308,35.65752],[51.38243,35.65698],[51.38186,35.65492],[51.38417,35.65269],[51.38967,35.64893],[51.39293,35.64446],[51.39155,35.64111],[51.39104,35.63972],[51.39327,35.63696],[51.39786,35.63021],[51.4049,35.62033],[51.40336,35.61443],[51.41056,35.6146],[51.41576,35.61558],[51.42039,35.61771],[51.4231,35.62012],[51.42722,35.62312],[51.43052,35.62517],[51.4334,35.6264],[51.43619,35.62741],[51.43327,35.65152]]]}},{"type":"Feature","properties":{"district":17,"name_fa":"منطقه 17"},"geometry":{"type":"Polygon","coordinates":[[[51.34426,35.66664],[51.34366,35.66406],[51.3543,35.63791],[51.35654,35.63651],[51.35817,35.63756],[51.36005,35.63864],[51.36516,35.64119],[51.36967,35.64534],[51.37168,35.65039],[51.37383,35.65262],[51.37713,35.65409],[51.38083,35.65458],[51.38164,35.65517],[51.38306,35.65765],[51.38662,35.65754],[51.38761,35.65799],[51.38902,35.65782],[51.39022,35.65831],[51.39284,35.6573],[51.39348,35.6597],[51.39319,35.66075],[51.39125,35.66172],[51.38979,35.66214],[51.38846,35.66176],[51.38555,35.65942],[51.3834,35.6597],[51.38224,35.65974],[51.38125,35.67086],[51.37602,35.66863],[51.36907,35.66696],[51.35817,35.6687],[51.3522,35.67089],[51.34426,35.66664]]]}},{"type":"Feature","properties":{"district":18,"name_fa":"منطقه 18"},"geometry":{"type":"Polygon","coordinates":[[[51.34358,35.6643],[51.34417,35.66678],[51.34152,35.66643],[51.30903,35.67211],[51.30929,35.67574],[51.27959,35.67651],[51.28118,35.67229],[51.28122,35.67135],[51.28105,35.67058],[51.28186,35.66919],[51.28306,35.66772],[51.28487,35.66179],[51.2901,35.66172],[51.29002,35.65953],[51.29409,35.65921],[51.29392,35.66162],[51.29572,35.66148],[51.29989,35.66179],[51.30049,35.66106],[51.30032,35.65942],[51.30066,35.65806],[51.30109,35.65569],[51.30002,35.65552],[51.29851,35.65499],[51.29791,35.65423],[51.29568,35.65207],[51.29506,35.65072],[51.2959,35.64832],[51.29813,35.64814],[51.29834,35.64783],[51.29974,35.64762],[51.29931,35.64601],[51.29946,35.64544],[51.30036,35.64469],[51.30027,35.64377],[51.2998,35.6438],[51.29933,35.64359],[51.301,35.64192],[51.29804,35.63932],[51.30092,35.63777],[51.31074,35.63773],[51.30971,35.64033],[51.31177,35.64042],[51.3119,35.64427],[51.31208,35.64703],[51.31165,35.64828],[51.31083,35.64924],[51.31072,35.6528],[51.31656,35.65388],[51.3201,35.65522],[51.32448,35.65709],[51.32561,35.65412],[51.32709,35.65191],[51.32864,35.64938],[51.32898,35.64647],[51.33027,35.64544],[51.33091,35.64495],[51.33145,35.64469],[51.33255,35.64349],[51.33319,35.64216],[51.32787,35.64181],[51.32864,35.63892],[51.33289,35.63925],[51.33152,35.63595],[51.33439,35.6359],[51.33712,35.63712],[51.34057,35.63351],[51.32323,35.62235],[51.32486,35.62033],[51.33473,35.62737],[51.34074,35.63044],[51.34752,35.634],[51.35336,35.63658],[51.35422,35.6377],[51.34358,35.6643]]]}},{"type":"Feature","properties":{"district":19,"name_fa":"منطقه 19"},"geometry":{"type":"Polygon","coordinates":[[[51.40486,35.62026],[51.39087,35.63972],[51.39284,35.64481],[51.3852,35.65214],[51.38125,35.65492],[51.3761,35.65381],[51.37173,35.65074],[51.3695,35.64495],[51.36443,35.64077],[51.35645,35.63658],[51.35413,35.63798],[51.35345,35.63665],[51.35104,35.63547],[51.33439,35.62723],[51.32812,35.62228],[51.32916,35.62116],[51.33568,35.62598],[51.33971,35.62633],[51.34074,35.61963],[51.33877,35.61963],[51.33902,35.61795],[51.34031,35.61523],[51.34392,35.61572],[51.34443,35.61844],[51.34383,35.62193],[51.34186,35.622],[51.341,35.62723],[51.34572,35.62765],[51.34512,35.62981],[51.34984,35.63128],[51.35164,35.62856],[51.35156,35.62723],[51.35216,35.62388],[51.35482,35.62388],[51.35465,35.62591],[51.35722,35.62556],[51.35902,35.6264],[51.35885,35.62772],[51.36074,35.62866],[51.36241,35.62884],[51.36507,35.625],[51.36413,35.62479],[51.36452,35.62116],[51.36671,35.62106],[51.36774,35.62319],[51.36593,35.62612],[51.36954,35.62779],[51.37156,35.62545],[51.37379,35.62653],[51.37177,35.62898],[51.37319,35.62967],[51.37662,35.62542],[51.37808,35.62517],[51.38306,35.62741],[51.38361,35.62458],[51.38683,35.62427],[51.38709,35.62176],[51.39031,35.61994],[51.39027,35.61433],[51.40331,35.6145],[51.40486,35.62026]]]}},{"type":"Feature","properties":{"district":20,"name_fa":"منطقه 20"},"geometry":{"type":"Polygon","coordinates":[[[51.45884,35.62465],[51.45369,35.62507],[51.43678,35.62444],[51.4361,35.62737],[51.43275,35.62618],[51.42597,35.62248],[51.42039,35.61767],[51.41575,35.61544],[51.41009,35.61446],[51.40331,35.61446],[51.40228,35.61272],[51.40743,35.61202],[51.40691,35.60888],[51.40571,35.60567],[51.40803,35.60399],[51.41215,35.60337],[51.41618,35.60016],[51.41541,35.59799],[51.41893,35.59687],[51.41773,35.59443],[51.41661,35.59297],[51.41721,35.59017],[51.41687,35.58857],[51.41696,35.58375],[51.41344,35.58194],[51.4112,35.58012],[51.41738,35.57524],[51.41618,35.57335],[51.42005,35.57189],[51.42348,35.56176],[51.42794,35.56323],[51.42477,35.57356],[51.42511,35.57699],[51.4246,35.57943],[51.42339,35.58082],[51.42245,35.58264],[51.42185,35.58368],[51.42468,35.5834],[51.42622,35.58145],[51.42708,35.58166],[51.42846,35.5825],[51.43069,35.58257],[51.43292,35.58166],[51.43704,35.58012],[51.43833,35.58229],[51.44185,35.58124],[51.44511,35.58047],[51.44768,35.5825],[51.44914,35.58473],[51.45163,35.58696],[51.45197,35.58424],[51.45103,35.58299],[51.4482,35.58173],[51.44708,35.58033],[51.45172,35.57712],[51.45429,35.57852],[51.45524,35.5811],[51.45601,35.57922],[51.45747,35.57775],[51.45858,35.57642],[51.45987,35.57559],[51.46056,35.57391],[51.46425,35.57216],[51.46983,35.55862],[51.47927,35.56127],[51.47721,35.56253],[51.47549,35.56469],[51.47352,35.56693],[51.47232,35.57007],[51.4712,35.57244],[51.47026,35.5758],[51.47077,35.57901],[51.46863,35.58236],[51.46631,35.58403],[51.46313,35.58592],[51.46004,35.58948],[51.45815,35.59248],[51.45463,35.59625],[51.4518,35.59862],[51.45369,35.60009],[51.45223,35.60183],[51.45137,35.60309],[51.44863,35.60344],[51.45009,35.60846],[51.45438,35.60783],[51.45644,35.6116],[51.46245,35.61411],[51.45747,35.61446],[51.45824,35.61718],[51.46202,35.61683],[51.46373,35.61795],[51.46348,35.62207],[51.45884,35.62465]]]}},{"type":"Feature","properties":{"district":21,"name_fa":"منطقه 21"},"geometry":{"type":"Polygon","coordinates":[[[51.27954,35.67731],[51.27937,35.67891],[51.27912,35.67996],[51.28195,35.68282],[51.28324,35.68498],[51.28435,35.6863],[51.28615,35.68651],[51.28735,35.68951],[51.28718,35.69118],[51.28959,35.69537],[51.28873,35.69662],[51.28967,35.69794],[51.28933,35.7008],[51.28976,35.70275],[51.29027,35.70352],[51.28976,35.7054],[51.29027,35.70784],[51.29105,35.70833],[51.2913,35.71627],[51.25251,35.71432],[51.24041,35.71627],[51.23088,35.71788],[51.22084,35.71816],[51.20719,35.72094],[51.16736,35.73641],[51.15458,35.74143],[51.14702,35.74407],[51.14041,35.74484],[51.13312,35.74456],[51.12454,35.74268],[51.11741,35.74205],[51.11003,35.74254],[51.09569,35.74428],[51.08952,35.74603],[51.08917,35.7431],[51.10454,35.74031],[51.11724,35.7362],[51.12419,35.73244],[51.12711,35.72812],[51.13166,35.72303],[51.1417,35.71627],[51.16427,35.70833],[51.18136,35.70429],[51.21835,35.68937],[51.23783,35.68219],[51.25946,35.67884],[51.27268,35.67689],[51.27937,35.67675],[51.27954,35.67731]]]}},{"type":"Feature","properties":{"district":22,"name_fa":"منطقه 22"},"geometry":{"type":"Polygon","coordinates":[[[51.28143,35.73],[51.26821,35.73934],[51.2659,35.74352],[51.26736,35.74965],[51.26821,35.75529],[51.26826,35.75633],[51.2683,35.77641],[51.26382,35.77975],[51.26291,35.78144],[51.26313,35.78057],[51.26306,35.78013],[51.2633,35.77959],[51.26349,35.77914],[51.26401,35.77876],[51.26409,35.77721],[51.26382,35.77479],[51.26343,35.7742],[51.2638,35.77347],[51.26386,35.77308],[51.26332,35.77221],[51.26309,35.77141],[51.26281,35.7707],[51.26264,35.77005],[51.26238,35.76817],[51.25586,35.76748],[51.24676,35.76803],[51.2371,35.76845],[51.23096,35.7681],[51.22367,35.76758],[51.21663,35.7679],[51.21075,35.76793],[51.20577,35.7681],[51.20127,35.76835],[51.19766,35.7688],[51.18256,35.77326],[51.14822,35.77103],[51.11527,35.7727],[51.09192,35.77437],[51.08952,35.74616],[51.09492,35.74428],[51.11724,35.74226],[51.12505,35.74296],[51.13157,35.74449],[51.1405,35.74505],[51.14711,35.74414],[51.1496,35.74331],[51.1865,35.7291],[51.20702,35.72087],[51.22066,35.71809],[51.23028,35.71795],[51.25242,35.71432],[51.26538,35.71502],[51.28186,35.71572],[51.2913,35.71641],[51.28143,35.73]]]}}]}